{"type": "FeatureCollection", "features": [ {"type": "Feature", "properties": {"norad_id": 29769, "name": "FENGYUN 1C DEB", "group": "fengyun-1c-debris", "lat": 71.30758812181476, "lon": 17.969850632921037, "alt_km": 796.9486094974982, "timestamp": "2025-12-14T22:38:41.029114+00:00", "meta": {"OBJECT_NAME": "FENGYUN 1C DEB", "OBJECT_ID": "1999-025BK", "EPOCH": "2025-12-13T02:07:44.144832", "MEAN_MOTION": 14.13533359, "ECCENTRICITY": 0.00938493, "INCLINATION": 99.1047, "RA_OF_ASC_NODE": 44.3746, "ARG_OF_PERICENTER": 129.5062, "MEAN_ANOMALY": 231.4454, "EPHEMERIS_TYPE": 0, "CLASSIFICATION_TYPE": "U", "NORAD_CAT_ID": 29769, "ELEMENT_SET_NO": 999, "REV_AT_EPOCH": 96686, "BSTAR": 0.0021856991, "MEAN_MOTION_DOT": 4.25e-05, "MEAN_MOTION_DDOT": 0}, "tle": {"line1": "1 29769U 99025BK  25347.08870538  .00004250  00000+0  21857-2 0  9993", "line2": "2 29769  99.1047  44.3746 0093849 129.5062 231.4454 14.13533359966866"}}, "geometry": {"type": "Point", "coordinates": [17.969850632921037, 71.30758812181476]}}, {"type": "Feature", "properties": {"norad_id": 29770, "name": "FENGYUN 1C DEB", "group": "fengyun-1c-debris", "lat": -80.58094763562204, "lon": 134.36161715050497, "alt_km": 787.3614484865338, "timestamp": "2025-12-14T22:38:41.029124+00:00", "meta": {"OBJECT_NAME": "FENGYUN 1C DEB", "OBJECT_ID": "1999-025BL", "EPOCH": "2025-12-14T04:42:45.565344", "MEAN_MOTION": 14.20128893, "ECCENTRICITY": 0.00629273, "INCLINATION": 98.8463, "RA_OF_ASC_NODE": 63.7669, "ARG_OF_PERICENTER": 267.0425, "MEAN_ANOMALY": 148.3511, "EPHEMERIS_TYPE": 0, "CLASSIFICATION_TYPE": "U", "NORAD_CAT_ID": 29770, "ELEMENT_SET_NO": 999, "REV_AT_EPOCH": 97107, "BSTAR": 0.0017253734, "MEAN_MOTION_DOT": 3.709e-05, "MEAN_MOTION_DDOT": 0}, "tle": {"line1": "1 29770U 99025BL  25348.19636071  .00003709  00000+0  17254-2 0  9994", "line2": "2 29770  98.8463  63.7669 0062927 267.0425 148.3511 14.20128893971079"}}, "geometry": {"type": "Point", "coordinates": [134.36161715050497, -80.58094763562204]}}, {"type": "Feature", "properties": {"norad_id": 29772, "name": "FENGYUN 1C DEB", "group": "fengyun-1c-debris", "lat": 58.662026313404105, "lon": -176.05123417631646, "alt_km": 948.1597134454632, "timestamp": "2025-12-14T22:38:41.029134+00:00", "meta": {"OBJECT_NAME": "FENGYUN 1C DEB", "OBJECT_ID": "1999-025BN", "EPOCH": "2025-12-10T07:59:03.938208", "MEAN_MOTION": 14.0319606, "ECCENTRICITY": 0.0138223, "INCLINATION": 98.3886, "RA_OF_ASC_NODE": 193.7194, "ARG_OF_PERICENTER": 297.041, "MEAN_ANOMALY": 242.7077, "EPHEMERIS_TYPE": 0, "CLASSIFICATION_TYPE": "U", "NORAD_CAT_ID": 29772, "ELEMENT_SET_NO": 999, "REV_AT_EPOCH": 96221, "BSTAR": 0.0016568, "MEAN_MOTION_DOT": 2.769e-05, "MEAN_MOTION_DDOT": 0}, "tle": {"line1": "1 29772U 99025BN  25344.33268447  .00002769  00000+0  16568-2 0  9998", "line2": "2 29772  98.3886 193.7194 0138223 297.0410 242.7077 14.03196060962216"}}, "geometry": {"type": "Point", "coordinates": [-176.05123417631646, 58.662026313404105]}}, {"type": "Feature", "properties": {"norad_id": 29773, "name": "FENGYUN 1C DEB", "group": "fengyun-1c-debris", "lat": -59.73267437260617, "lon": 158.3431564298845, "alt_km": 774.7573622861119, "timestamp": "2025-12-14T22:38:41.029145+00:00", "meta": {"OBJECT_NAME": "FENGYUN 1C DEB", "OBJECT_ID": "1999-025BP", "EPOCH": "2025-12-13T23:57:34.583616", "MEAN_MOTION": 14.2757296, "ECCENTRICITY": 0.00463624, "INCLINATION": 98.9876, "RA_OF_ASC_NODE": 141.6364, "ARG_OF_PERICENTER": 286.9805, "MEAN_ANOMALY": 196.998, "EPHEMERIS_TYPE": 0, "CLASSIFICATION_TYPE": "U", "NORAD_CAT_ID": 29773, "ELEMENT_SET_NO": 999, "REV_AT_EPOCH": 98215, "BSTAR": 0.00049724563, "MEAN_MOTION_DOT": 1.19e-05, "MEAN_MOTION_DDOT": 0}, "tle": {"line1": "1 29773U 99025BP  25347.99831694  .00001190  00000+0  49725-3 0  9993", "line2": "2 29773  98.9876 141.6364 0046362 286.9805 196.9980 14.27572960982151"}}, "geometry": {"type": "Point", "coordinates": [158.3431564298845, -59.73267437260617]}}, {"type": "Feature", "properties": {"norad_id": 29774, "name": "FENGYUN 1C DEB", "group": "fengyun-1c-debris", "lat": -47.140777832110466, "lon": 99.41882031233456, "alt_km": 835.7892417308485, "timestamp": "2025-12-14T22:38:41.029155+00:00", "meta": {"OBJECT_NAME": "FENGYUN 1C DEB", "OBJECT_ID": "1999-025BQ", "EPOCH": "2025-12-14T08:38:53.775168", "MEAN_MOTION": 14.22734093, "ECCENTRICITY": 0.00511554, "INCLINATION": 99.0762, "RA_OF_ASC_NODE": 288.7378, "ARG_OF_PERICENTER": 118.6914, "MEAN_ANOMALY": 3.288, "EPHEMERIS_TYPE": 0, "CLASSIFICATION_TYPE": "U", "NORAD_CAT_ID": 29774, "ELEMENT_SET_NO": 999, "REV_AT_EPOCH": 98098, "BSTAR": 0.00023075254, "MEAN_MOTION_DOT": 4.77e-06, "MEAN_MOTION_DDOT": 0}, "tle": {"line1": "1 29774U 99025BQ  25348.36034462  .00000477  00000+0  23075-3 0  9991", "line2": "2 29774  99.0762 288.7378 0051155 118.6914   3.2880 14.22734093980984"}}, "geometry": {"type": "Point", "coordinates": [99.41882031233456, -47.140777832110466]}}, {"type": "Feature", "properties": {"norad_id": 29776, "name": "FENGYUN 1C DEB", "group": "fengyun-1c-debris", "lat": -4.161283714435043, "lon": 16.27686407057872, "alt_km": 870.8020602115021, "timestamp": "2025-12-14T22:38:41.029165+00:00", "meta": {"OBJECT_NAME": "FENGYUN 1C DEB", "OBJECT_ID": "1999-025BS", "EPOCH": "2025-12-14T07:36:46.181088", "MEAN_MOTION": 14.07775934, "ECCENTRICITY": 0.0022806, "INCLINATION": 98.7711, "RA_OF_ASC_NODE": 15.025, "ARG_OF_PERICENTER": 266.1918, "MEAN_ANOMALY": 156.9855, "EPHEMERIS_TYPE": 0, "CLASSIFICATION_TYPE": "U", "NORAD_CAT_ID": 29776, "ELEMENT_SET_NO": 999, "REV_AT_EPOCH": 97102, "BSTAR": 0.00025826756, "MEAN_MOTION_DOT": 3.95e-06, "MEAN_MOTION_DDOT": 0}, "tle": {"line1": "1 29776U 99025BS  25348.31720117  .00000395  00000+0  25827-3 0  9993", "line2": "2 29776  98.7711  15.0250 0022806 266.1918 156.9855 14.07775934971025"}}, "geometry": {"type": "Point", "coordinates": [16.27686407057872, -4.161283714435043]}}, {"type": "Feature", "properties": {"norad_id": 29777, "name": "FENGYUN 1C DEB", "group": "fengyun-1c-debris", "lat": -77.51870765039288, "lon": 93.44884653877453, "alt_km": 910.009971316822, "timestamp": "2025-12-14T22:38:41.029175+00:00", "meta": {"OBJECT_NAME": "FENGYUN 1C DEB", "OBJECT_ID": "1999-025BT", "EPOCH": "2025-12-14T02:39:24.645888", "MEAN_MOTION": 13.92105392, "ECCENTRICITY": 0.00927787, "INCLINATION": 99.2836, "RA_OF_ASC_NODE": 44.9747, "ARG_OF_PERICENTER": 206.0181, "MEAN_ANOMALY": 219.8141, "EPHEMERIS_TYPE": 0, "CLASSIFICATION_TYPE": "U", "NORAD_CAT_ID": 29777, "ELEMENT_SET_NO": 999, "REV_AT_EPOCH": 96060, "BSTAR": 0.00025915191, "MEAN_MOTION_DOT": 2.98e-06, "MEAN_MOTION_DDOT": 0}, "tle": {"line1": "1 29777U 99025BT  25348.11070192  .00000298  00000+0  25915-3 0  9993", "line2": "2 29777  99.2836  44.9747 0092778 206.0181 219.8141 13.92105392960609"}}, "geometry": {"type": "Point", "coordinates": [93.44884653877453, -77.51870765039288]}}, {"type": "Feature", "properties": {"norad_id": 29779, "name": "FENGYUN 1C DEB", "group": "fengyun-1c-debris", "lat": 44.978347797953624, "lon": -8.663035536428978, "alt_km": 860.8114327243866, "timestamp": "2025-12-14T22:38:41.029185+00:00", "meta": {"OBJECT_NAME": "FENGYUN 1C DEB", "OBJECT_ID": "1999-025BV", "EPOCH": "2025-12-14T07:08:13.680384", "MEAN_MOTION": 14.13444176, "ECCENTRICITY": 0.0063572, "INCLINATION": 98.6773, "RA_OF_ASC_NODE": 359.4877, "ARG_OF_PERICENTER": 159.7596, "MEAN_ANOMALY": 200.6119, "EPHEMERIS_TYPE": 0, "CLASSIFICATION_TYPE": "U", "NORAD_CAT_ID": 29779, "ELEMENT_SET_NO": 999, "REV_AT_EPOCH": 97434, "BSTAR": 0.00029342414, "MEAN_MOTION_DOT": 5.2e-06, "MEAN_MOTION_DDOT": 0}, "tle": {"line1": "1 29779U 99025BV  25348.29738056  .00000520  00000+0  29342-3 0  9990", "line2": "2 29779  98.6773 359.4877 0063572 159.7596 200.6119 14.13444176974345"}}, "geometry": {"type": "Point", "coordinates": [-8.663035536428978, 44.978347797953624]}}, {"type": "Feature", "properties": {"norad_id": 29780, "name": "FENGYUN 1C DEB", "group": "fengyun-1c-debris", "lat": -52.57221981583604, "lon": 77.64933814143691, "alt_km": 839.4663727044881, "timestamp": "2025-12-14T22:38:41.029195+00:00", "meta": {"OBJECT_NAME": "FENGYUN 1C DEB", "OBJECT_ID": "1999-025BW", "EPOCH": "2025-12-14T06:20:41.044416", "MEAN_MOTION": 14.21055632, "ECCENTRICITY": 0.0040723, "INCLINATION": 99.2772, "RA_OF_ASC_NODE": 269.2683, "ARG_OF_PERICENTER": 123.6297, "MEAN_ANOMALY": 236.8774, "EPHEMERIS_TYPE": 0, "CLASSIFICATION_TYPE": "U", "NORAD_CAT_ID": 29780, "ELEMENT_SET_NO": 999, "REV_AT_EPOCH": 97100, "BSTAR": 0.0018795234, "MEAN_MOTION_DOT": 4.067e-05, "MEAN_MOTION_DDOT": 0}, "tle": {"line1": "1 29780U 99025BW  25348.26436394  .00004067  00000+0  18795-2 0  9998", "line2": "2 29780  99.2772 269.2683 0040723 123.6297 236.8774 14.21055632971009"}}, "geometry": {"type": "Point", "coordinates": [77.64933814143691, -52.57221981583604]}}, {"type": "Feature", "properties": {"norad_id": 29781, "name": "FENGYUN 1C DEB", "group": "fengyun-1c-debris", "lat": 56.49115759830573, "lon": -30.509466692577636, "alt_km": 887.267535862944, "timestamp": "2025-12-14T22:38:41.029205+00:00", "meta": {"OBJECT_NAME": "FENGYUN 1C DEB", "OBJECT_ID": "1999-025BX", "EPOCH": "2025-12-14T05:21:22.364928", "MEAN_MOTION": 14.0522973, "ECCENTRICITY": 0.00719423, "INCLINATION": 98.8096, "RA_OF_ASC_NODE": 342.3363, "ARG_OF_PERICENTER": 168.9967, "MEAN_ANOMALY": 207.2453, "EPHEMERIS_TYPE": 0, "CLASSIFICATION_TYPE": "U", "NORAD_CAT_ID": 29781, "ELEMENT_SET_NO": 999, "REV_AT_EPOCH": 96664, "BSTAR": 0.00084236277, "MEAN_MOTION_DOT": 1.351e-05, "MEAN_MOTION_DDOT": 0}, "tle": {"line1": "1 29781U 99025BX  25348.22317552  .00001351  00000+0  84236-3 0  9996", "line2": "2 29781  98.8096 342.3363 0071942 168.9967 207.2453 14.05229730966649"}}, "geometry": {"type": "Point", "coordinates": [-30.509466692577636, 56.49115759830573]}}]}